COSMOS 2433 (720)       
1 32275U 07052A   22025.74564315 -.00000029  00000+0  00000+0 0  9999
2 32275  66.0827   9.4052 0005110 263.7853 316.2808  2.13104184110926
COSMOS 2432 (719)       
1 32276U 07052B   22025.34093863 -.00000028  00000+0  00000+0 0  9990
2 32276  66.0952   9.5168 0011771 318.1840 260.0795  2.13103474110917
COSMOS 2434 (721)       
1 32393U 07065A   22024.70335942  .00000085  00000+0  00000+0 0  9992
2 32393  64.4103 246.3371 0004405  70.4775 319.0200  2.13103079109617
COSMOS 2436 (723)       
1 32395U 07065C   22024.61713831  .00000084  00000+0  00000+0 0  9990
2 32395  64.4188 246.3964 0016604   5.4663  93.8458  2.13102891109543
COSMOS 2456 (730)       
1 36111U 09070A   22025.73646582  .00000003  00000+0  00000+0 0  9991
2 36111  64.3195 125.9550 0002645 312.6743 316.9677  2.13099101 94291
COSMOS 2457 (733)       
1 36112U 09070B   22025.59817449  .00000005  00000+0  00000+0 0  9990
2 36112  64.3021 125.8390 0006085 159.7905 129.9207  2.13101322 94293
COSMOS 2461 (735)       
1 36401U 10007B   22025.41138183 -.00000029  00000+0  00000+0 0  9992
2 36401  65.9716   8.2742 0020341 359.1127 182.0791  2.13103715 92643
COSMOS 2460 (732)       
1 36402U 10007C   22025.01438204 -.00000029  00000+0  00000+0 0  9996
2 36402  65.9579   8.2402 0002464 283.5564 260.1283  2.13106461 92639
COSMOS 2464 (736)       
1 37139U 10041C   22025.75399052  .00000094  00000+0  00000+0 0  9991
2 37139  64.0091 245.4476 0030169  12.8681 321.9340  2.13100829 88703
COSMOS 2476 (744)       
1 37867U 11064A   22025.87217760  .00000003  00000+0  00000+0 0  9993
2 37867  64.6107 127.2503 0021074 233.5543  44.4576  2.13101799 79645
COSMOS 2477 (745)       
1 37868U 11064B   22025.42681683  .00000009  00000+0  00000+0 0  9990
2 37868  64.6181 127.3289 0018247 233.8249 240.7290  2.13101605 79598
COSMOS 2475 (743)       
1 37869U 11064C   22025.67148188  .00000006  00000+0  00000+0 0  9993
2 37869  64.6257 127.3274 0022033 253.9428   6.2081  2.13101769 79603
COSMOS 2485 (747)       
1 39155U 13019A   22025.80614220  .00000005  00000+0  00000+0 0  9994
2 39155  64.7754 127.6501 0021465 229.3800  42.4074  2.13101772 68113
COSMOS 2492 (754)       
1 39620U 14012A   22025.67245241 -.00000031  00000+0  00000+0 0  9993
2 39620  65.8447   7.9201 0015107 317.1645 246.6581  2.13103247 61064
COSMOS 2500 (755)       
1 40001U 14032A   22025.35369273 -.00000030  00000+0  00000+0 0  9996
2 40001  65.7847   7.8021 0007220 223.9512 314.3660  2.13102455 59276
COSMOS 2501 (702K)      
1 40315U 14075A   22025.73984343  .00000092  00000+0  00000+0 0  9991
2 40315  63.7185 246.1716 0016282 207.3097  74.5600  2.13101377 55680
COSMOS 2514 (751)       
1 41330U 16008A   22025.57440019 -.00000031  00000+0  00000+0 0  9990
2 41330  65.5849   7.5223 0011179 225.7882 305.4178  2.13102839 46447
COSMOS 2516 (753)       
1 41554U 16032A   22025.45587361  .00000090  00000+0  00000+0 0  9998
2 41554  63.9433 246.4182 0012045 214.7114 125.5025  2.13106060 44049
COSMOS 2522 (752)       
1 42939U 17055A   22024.86222370  .00000085  00000+0  00000+0 0  9996
2 42939  64.1777 246.7910 0005444 248.7077 215.1716  2.13102115 33793
COSMOS 2527 (756)       
1 43508U 18053A   22025.52944372  .00000008  00000+0  00000+0 0  9990
2 43508  64.9394 127.6297 0007964 221.0262  66.8262  2.13102506 28091
COSMOS 2529 (757)       
1 43687U 18086A   22025.03258115  .00000086  00000+0  00000+0 0  9999
2 43687  64.3920 247.0639 0008019 277.4126 272.6750  2.13102129 25100
COSMOS 2534 (758)       
1 44299U 19030A   22025.54939091  .00000090  00000+0  00000+0 0  9999
2 44299  64.4630 246.9167 0011419 297.4176  63.8096  2.13101916 20761
COSMOS 2544 (759)       
1 44850U 19088A   22025.56716118  .00000007  00000+0  00000+0 0  9998
2 44850  64.9241 127.4836 0011501 255.7137 104.6487  2.13102317 16533
COSMOS 2545 (760)       
1 45358U 20018A   22025.76635134 -.00000033  00000+0  00000+0 0  9997
2 45358  64.9215   8.2420 0011210 256.0015 106.8670  2.13102710 14497
COSMOS 2547 (705K)      
1 46805U 20075A   22025.87895760  .00000095  00000+0  00000+0 0  9990
2 46805  64.6865 246.2876 0005477 251.4185  49.8454  2.13102956  9736
